{"type": "FeatureCollection", "features": [ {"type": "Feature", "properties": {"norad_id": 34433, "name": "COSMOS 2251 DEB", "group": "cosmos-2251-debris", "lat": 55.23450855405831, "lon": -74.01491930422125, "alt_km": 932.9329905303448, "timestamp": "2025-12-26T14:28:48.097410+00:00", "meta": {"OBJECT_NAME": "COSMOS 2251 DEB", "OBJECT_ID": "1993-036SA", "EPOCH": "2025-12-25T19:12:11.035008", "MEAN_MOTION": 14.12911954, "ECCENTRICITY": 0.0152849, "INCLINATION": 74.01, "RA_OF_ASC_NODE": 131.8065, "ARG_OF_PERICENTER": 267.1359, "MEAN_ANOMALY": 91.228, "EPHEMERIS_TYPE": 0, "CLASSIFICATION_TYPE": "U", "NORAD_CAT_ID": 34433, "ELEMENT_SET_NO": 999, "REV_AT_EPOCH": 86134, "BSTAR": 0.001379, "MEAN_MOTION_DOT": 2.843e-05, "MEAN_MOTION_DDOT": 0}, "tle": {"line1": "1 34433U 93036SA  25359.80012772  .00002843  00000+0  13790-2 0  9997", "line2": "2 34433  74.0100 131.8065 0152849 267.1359  91.2280 14.12911954861348"}}, "geometry": {"type": "Point", "coordinates": [-74.01491930422125, 55.23450855405831]}}, {"type": "Feature", "properties": {"norad_id": 34434, "name": "COSMOS 2251 DEB", "group": "cosmos-2251-debris", "lat": -52.97601271582118, "lon": -35.71863214824294, "alt_km": 1135.0497043897667, "timestamp": "2025-12-26T14:28:48.097420+00:00", "meta": {"OBJECT_NAME": "COSMOS 2251 DEB", "OBJECT_ID": "1993-036SB", "EPOCH": "2025-12-26T06:13:00.407136", "MEAN_MOTION": 13.89888455, "ECCENTRICITY": 0.02733986, "INCLINATION": 74.0626, "RA_OF_ASC_NODE": 347.1299, "ARG_OF_PERICENTER": 121.1304, "MEAN_ANOMALY": 260.9123, "EPHEMERIS_TYPE": 0, "CLASSIFICATION_TYPE": "U", "NORAD_CAT_ID": 34434, "ELEMENT_SET_NO": 999, "REV_AT_EPOCH": 84154, "BSTAR": 0.0021531557, "MEAN_MOTION_DOT": 3.56e-05, "MEAN_MOTION_DDOT": 0}, "tle": {"line1": "1 34434U 93036SB  25360.25903249  .00003560  00000+0  21532-2 0  9997", "line2": "2 34434  74.0626 347.1299 0273398 121.1304 260.9123 13.89888455841548"}}, "geometry": {"type": "Point", "coordinates": [-35.71863214824294, -52.97601271582118]}}, {"type": "Feature", "properties": {"norad_id": 34446, "name": "COSMOS 2251 DEB", "group": "cosmos-2251-debris", "lat": -36.87987668842461, "lon": -136.3196416401642, "alt_km": 711.8102828841293, "timestamp": "2025-12-26T14:28:48.097430+00:00", "meta": {"OBJECT_NAME": "COSMOS 2251 DEB", "OBJECT_ID": "1993-036SP", "EPOCH": "2025-12-26T03:32:17.799936", "MEAN_MOTION": 14.49366615, "ECCENTRICITY": 0.00504783, "INCLINATION": 74.0414, "RA_OF_ASC_NODE": 32.1376, "ARG_OF_PERICENTER": 166.9118, "MEAN_ANOMALY": 193.3366, "EPHEMERIS_TYPE": 0, "CLASSIFICATION_TYPE": "U", "NORAD_CAT_ID": 34446, "ELEMENT_SET_NO": 999, "REV_AT_EPOCH": 88888, "BSTAR": 0.00011116406, "MEAN_MOTION_DOT": 4.03e-06, "MEAN_MOTION_DDOT": 0}, "tle": {"line1": "1 34446U 93036SP  25360.14742824  .00000403  00000+0  11116-3 0  9999", "line2": "2 34446  74.0414  32.1376 0050478 166.9118 193.3366 14.49366615888887"}}, "geometry": {"type": "Point", "coordinates": [-136.3196416401642, -36.87987668842461]}}, {"type": "Feature", "properties": {"norad_id": 34449, "name": "COSMOS 2251 DEB", "group": "cosmos-2251-debris", "lat": 44.20080552361596, "lon": -153.58657409454435, "alt_km": 567.5193683090265, "timestamp": "2025-12-26T14:28:48.097441+00:00", "meta": {"OBJECT_NAME": "COSMOS 2251 DEB", "OBJECT_ID": "1993-036SS", "EPOCH": "2025-12-26T04:30:26.621568", "MEAN_MOTION": 14.95584829, "ECCENTRICITY": 0.00228037, "INCLINATION": 74.0324, "RA_OF_ASC_NODE": 43.4197, "ARG_OF_PERICENTER": 78.4274, "MEAN_ANOMALY": 338.4923, "EPHEMERIS_TYPE": 0, "CLASSIFICATION_TYPE": "U", "NORAD_CAT_ID": 34449, "ELEMENT_SET_NO": 999, "REV_AT_EPOCH": 88894, "BSTAR": 0.0022698319, "MEAN_MOTION_DOT": 0.00025382, "MEAN_MOTION_DDOT": 0}, "tle": {"line1": "1 34449U 93036SS  25360.18780812  .00025382  00000+0  22698-2 0  9994", "line2": "2 34449  74.0324  43.4197 0022803  78.4274 338.4923 14.95584829888945"}}, "geometry": {"type": "Point", "coordinates": [-153.58657409454435, 44.20080552361596]}}, {"type": "Feature", "properties": {"norad_id": 34451, "name": "COSMOS 2251 DEB", "group": "cosmos-2251-debris", "lat": 38.088604845652824, "lon": -133.07029915828275, "alt_km": 569.0065191073072, "timestamp": "2025-12-26T14:28:48.097451+00:00", "meta": {"OBJECT_NAME": "COSMOS 2251 DEB", "OBJECT_ID": "1993-036SU", "EPOCH": "2025-12-26T05:50:09.131136", "MEAN_MOTION": 14.96332901, "ECCENTRICITY": 0.00238647, "INCLINATION": 74.0457, "RA_OF_ASC_NODE": 60.6139, "ARG_OF_PERICENTER": 72.0261, "MEAN_ANOMALY": 288.3522, "EPHEMERIS_TYPE": 0, "CLASSIFICATION_TYPE": "U", "NORAD_CAT_ID": 34451, "ELEMENT_SET_NO": 999, "REV_AT_EPOCH": 88837, "BSTAR": 0.0024882917, "MEAN_MOTION_DOT": 0.00028394, "MEAN_MOTION_DDOT": 0}, "tle": {"line1": "1 34451U 93036SU  25360.24316124  .00028394  00000+0  24883-2 0  9999", "line2": "2 34451  74.0457  60.6139 0023864  72.0261 288.3522 14.96332901888374"}}, "geometry": {"type": "Point", "coordinates": [-133.07029915828275, 38.088604845652824]}}, {"type": "Feature", "properties": {"norad_id": 34452, "name": "COSMOS 2251 DEB", "group": "cosmos-2251-debris", "lat": -53.376200535122884, "lon": 131.4595811251946, "alt_km": 525.6771943533986, "timestamp": "2025-12-26T14:28:48.097461+00:00", "meta": {"OBJECT_NAME": "COSMOS 2251 DEB", "OBJECT_ID": "1993-036SV", "EPOCH": "2025-12-26T05:28:33.796416", "MEAN_MOTION": 15.12067543, "ECCENTRICITY": 0.0063955, "INCLINATION": 74.0319, "RA_OF_ASC_NODE": 154.894, "ARG_OF_PERICENTER": 228.1913, "MEAN_ANOMALY": 193.2501, "EPHEMERIS_TYPE": 0, "CLASSIFICATION_TYPE": "U", "NORAD_CAT_ID": 34452, "ELEMENT_SET_NO": 999, "REV_AT_EPOCH": 90866, "BSTAR": 0.0010288198, "MEAN_MOTION_DOT": 0.00018606, "MEAN_MOTION_DDOT": 0}, "tle": {"line1": "1 34452U 93036SV  25360.22816894  .00018606  00000+0  10288-2 0  9996", "line2": "2 34452  74.0319 154.8940 0063955 228.1913 193.2501 15.12067543908663"}}, "geometry": {"type": "Point", "coordinates": [131.4595811251946, -53.376200535122884]}}, {"type": "Feature", "properties": {"norad_id": 34454, "name": "COSMOS 2251 DEB", "group": "cosmos-2251-debris", "lat": -60.998919991370954, "lon": -138.93329036919133, "alt_km": 744.6224693044242, "timestamp": "2025-12-26T14:28:48.097472+00:00", "meta": {"OBJECT_NAME": "COSMOS 2251 DEB", "OBJECT_ID": "1993-036SX", "EPOCH": "2025-12-26T03:06:03.140928", "MEAN_MOTION": 14.38828394, "ECCENTRICITY": 0.00359977, "INCLINATION": 74.0583, "RA_OF_ASC_NODE": 252.979, "ARG_OF_PERICENTER": 312.8835, "MEAN_ANOMALY": 46.9298, "EPHEMERIS_TYPE": 0, "CLASSIFICATION_TYPE": "U", "NORAD_CAT_ID": 34454, "ELEMENT_SET_NO": 999, "REV_AT_EPOCH": 88260, "BSTAR": 0.0002085403, "MEAN_MOTION_DOT": 6.2e-06, "MEAN_MOTION_DDOT": 0}, "tle": {"line1": "1 34454U 93036SX  25360.12920302  .00000620  00000+0  20854-3 0  9995", "line2": "2 34454  74.0583 252.9790 0035997 312.8835  46.9298 14.38828394882608"}}, "geometry": {"type": "Point", "coordinates": [-138.93329036919133, -60.998919991370954]}}, {"type": "Feature", "properties": {"norad_id": 34459, "name": "COSMOS 2251 DEB", "group": "cosmos-2251-debris", "lat": -0.7725280051641614, "lon": 50.307606494118545, "alt_km": 953.7880793586728, "timestamp": "2025-12-26T14:28:48.097482+00:00", "meta": {"OBJECT_NAME": "COSMOS 2251 DEB", "OBJECT_ID": "1993-036TC", "EPOCH": "2025-12-26T01:36:04.250304", "MEAN_MOTION": 14.00518809, "ECCENTRICITY": 0.01921376, "INCLINATION": 74.0778, "RA_OF_ASC_NODE": 231.0143, "ARG_OF_PERICENTER": 297.7745, "MEAN_ANOMALY": 60.4023, "EPHEMERIS_TYPE": 0, "CLASSIFICATION_TYPE": "U", "NORAD_CAT_ID": 34459, "ELEMENT_SET_NO": 999, "REV_AT_EPOCH": 85898, "BSTAR": 0.00032799072, "MEAN_MOTION_DOT": 5.46e-06, "MEAN_MOTION_DDOT": 0}, "tle": {"line1": "1 34459U 93036TC  25360.06671586  .00000546  00000+0  32799-3 0  9998", "line2": "2 34459  74.0778 231.0143 0192137 297.7745  60.4023 14.00518809858987"}}, "geometry": {"type": "Point", "coordinates": [50.307606494118545, -0.7725280051641614]}}, {"type": "Feature", "properties": {"norad_id": 34464, "name": "COSMOS 2251 DEB", "group": "cosmos-2251-debris", "lat": -19.794820055099535, "lon": -125.29908231043919, "alt_km": 475.57088681974983, "timestamp": "2025-12-26T14:28:48.097492+00:00", "meta": {"OBJECT_NAME": "COSMOS 2251 DEB", "OBJECT_ID": "1993-036TH", "EPOCH": "2025-12-26T05:45:12.356640", "MEAN_MOTION": 15.28991347, "ECCENTRICITY": 0.00135393, "INCLINATION": 73.9877, "RA_OF_ASC_NODE": 49.5428, "ARG_OF_PERICENTER": 232.0951, "MEAN_ANOMALY": 127.9028, "EPHEMERIS_TYPE": 0, "CLASSIFICATION_TYPE": "U", "NORAD_CAT_ID": 34464, "ELEMENT_SET_NO": 999, "REV_AT_EPOCH": 90046, "BSTAR": 0.0025440484, "MEAN_MOTION_DOT": 0.00072502, "MEAN_MOTION_DDOT": 0}, "tle": {"line1": "1 34464U 93036TH  25360.23972635  .00072502  00000+0  25440-2 0  9997", "line2": "2 34464  73.9877  49.5428 0013539 232.0951 127.9028 15.28991347900466"}}, "geometry": {"type": "Point", "coordinates": [-125.29908231043919, -19.794820055099535]}}, {"type": "Feature", "properties": {"norad_id": 34468, "name": "COSMOS 2251 DEB", "group": "cosmos-2251-debris", "lat": 16.472692421552708, "lon": 96.09441800030787, "alt_km": 777.2211433626853, "timestamp": "2025-12-26T14:28:48.097503+00:00", "meta": {"OBJECT_NAME": "COSMOS 2251 DEB", "OBJECT_ID": "1993-036TM", "EPOCH": "2025-12-26T06:06:27.162720", "MEAN_MOTION": 14.47660792, "ECCENTRICITY": 0.00762246, "INCLINATION": 74.0132, "RA_OF_ASC_NODE": 91.8849, "ARG_OF_PERICENTER": 234.0818, "MEAN_ANOMALY": 125.3252, "EPHEMERIS_TYPE": 0, "CLASSIFICATION_TYPE": "U", "NORAD_CAT_ID": 34468, "ELEMENT_SET_NO": 999, "REV_AT_EPOCH": 88657, "BSTAR": 0.00037806445, "MEAN_MOTION_DOT": 1.416e-05, "MEAN_MOTION_DDOT": 0}, "tle": {"line1": "1 34468U 93036TM  25360.25448105  .00001416  00000+0  37806-3 0  9999", "line2": "2 34468  74.0132  91.8849 0076224 234.0818 125.3252 14.47660792886570"}}, "geometry": {"type": "Point", "coordinates": [96.09441800030787, 16.472692421552708]}}]}